{"type":"FeatureCollection","features":[
{"geometry":{"coordinates":[-74.0012,40.7108],"type":"Point"},"id":"wikidata-Q227873","properties":{"country":"US","id":"wikidata-Q227873","inception":"1976-01-01","name":"375 Pearl Street","operators":null,"owners":null,"website":"https://375pearl.com","wikidata_id":"Q227873","wikidata_url":"https://www.wikidata.org/wiki/Q227873"},"type":"Feature"},
{"geometry":{"coordinates":[7.25417,46.4856],"type":"Point"},"id":"wikidata-Q520438","properties":{"country":"CH","id":"wikidata-Q520438","inception":null,"name":"Swiss Fort Knox","operators":null,"owners":null,"website":null,"wikidata_id":"Q520438","wikidata_url":"https://www.wikidata.org/wiki/Q520438"},"type":"Feature"},
{"geometry":{"coordinates":[11.6667,48.2617],"type":"Point"},"id":"wikidata-Q872555","properties":{"country":"DE","id":"wikidata-Q872555","inception":"1962-01-01","name":"Leibniz Supercomputing Centre","operators":"Bavarian Academy of Sciences and Humanities","owners":null,"website":"https://www.lrz.de/","wikidata_id":"Q872555","wikidata_url":"https://www.wikidata.org/wiki/Q872555"},"type":"Feature"},
{"geometry":{"coordinates":[7.84829,48.0034],"type":"Point"},"id":"wikidata-Q880247","properties":{"country":"DE","id":"wikidata-Q880247","inception":null,"name":"Q880247","operators":null,"owners":null,"website":null,"wikidata_id":"Q880247","wikidata_url":"https://www.wikidata.org/wiki/Q880247"},"type":"Feature"},
{"geometry":{"coordinates":[7.767752,48.582531],"type":"Point"},"id":"wikidata-Q1054195","properties":{"country":"FR","id":"wikidata-Q1054195","inception":"1972-01-01","name":"Strasbourg Astronomical Data Center","operators":null,"owners":null,"website":"https://cds.unistra.fr/","wikidata_id":"Q1054195","wikidata_url":"https://www.wikidata.org/wiki/Q1054195"},"type":"Feature"},
{"geometry":{"coordinates":[9.976509,53.566857],"type":"Point"},"id":"wikidata-Q1205784","properties":{"country":"DE","id":"wikidata-Q1205784","inception":null,"name":"German Climate Computing Centre","operators":null,"owners":null,"website":"http://www.dkrz.de","wikidata_id":"Q1205784","wikidata_url":"https://www.wikidata.org/wiki/Q1205784"},"type":"Feature"},
{"geometry":{"coordinates":[8.638231,49.871441],"type":"Point"},"id":"wikidata-Q1205896","properties":{"country":"DE","id":"wikidata-Q1205896","inception":"1961-01-01","name":"Deutsches Rechenzentrum","operators":null,"owners":null,"website":null,"wikidata_id":"Q1205896","wikidata_url":"https://www.wikidata.org/wiki/Q1205896"},"type":"Feature"},
{"geometry":{"coordinates":[15.3382,47.4492],"type":"Point"},"id":"wikidata-Q1277574","properties":{"country":"AT","id":"wikidata-Q1277574","inception":null,"name":"earthDATAsafe","operators":"Cancom Austria AG","owners":null,"website":null,"wikidata_id":"Q1277574","wikidata_url":"https://www.wikidata.org/wiki/Q1277574"},"type":"Feature"},
{"geometry":{"coordinates":[8.40803,49.0121],"type":"Point"},"id":"wikidata-Q1532461","properties":{"country":"DE","id":"wikidata-Q1532461","inception":null,"name":"Scientific Computing Center","operators":null,"owners":null,"website":null,"wikidata_id":"Q1532461","wikidata_url":"https://www.wikidata.org/wiki/Q1532461"},"type":"Feature"},
{"geometry":{"coordinates":[9.09719,48.7395],"type":"Point"},"id":"wikidata-Q1643268","properties":{"country":"DE","id":"wikidata-Q1643268","inception":"1995-01-01","name":"High Performance Computing Center, Stuttgart","operators":"University of Stuttgart","owners":null,"website":null,"wikidata_id":"Q1643268","wikidata_url":"https://www.wikidata.org/wiki/Q1643268"},"type":"Feature"},
{"geometry":{"coordinates":[11.673612,48.262967],"type":"Point"},"id":"wikidata-Q2135258","properties":{"country":"DE","id":"wikidata-Q2135258","inception":"1960-01-01","name":"Max Planck Computing and Data Facility","operators":null,"owners":null,"website":"http://www.mpcdf.mpg.de/","wikidata_id":"Q2135258","wikidata_url":"https://www.wikidata.org/wiki/Q2135258"},"type":"Feature"},
{"geometry":{"coordinates":[11.0277,49.5737],"type":"Point"},"id":"wikidata-Q2138360","properties":{"country":"DE","id":"wikidata-Q2138360","inception":null,"name":"Regional Computing Centre of Erlangen","operators":null,"owners":null,"website":null,"wikidata_id":"Q2138360","wikidata_url":"https://www.wikidata.org/wiki/Q2138360"},"type":"Feature"},
{"geometry":{"coordinates":[9.72328,52.3794],"type":"Point"},"id":"wikidata-Q2138362","properties":{"country":"DE","id":"wikidata-Q2138362","inception":null,"name":"Leibniz Universität IT Services","operators":null,"owners":null,"website":null,"wikidata_id":"Q2138362","wikidata_url":"https://www.wikidata.org/wiki/Q2138362"},"type":"Feature"},
{"geometry":{"coordinates":[-117.239,32.8844],"type":"Point"},"id":"wikidata-Q3947008","properties":{"country":"US","id":"wikidata-Q3947008","inception":null,"name":"San Diego Supercomputer Center","operators":null,"owners":null,"website":null,"wikidata_id":"Q3947008","wikidata_url":"https://www.wikidata.org/wiki/Q3947008"},"type":"Feature"},
{"geometry":{"coordinates":[-73.6973,42.6805],"type":"Point"},"id":"wikidata-Q5157282","properties":{"country":"US","id":"wikidata-Q5157282","inception":null,"name":"Computational Center for Nanotechnology Innovations","operators":null,"owners":null,"website":"http://www.rpi.edu/research/ccni","wikidata_id":"Q5157282","wikidata_url":"https://www.wikidata.org/wiki/Q5157282"},"type":"Feature"},
{"geometry":{"coordinates":[-72.607933,42.202521],"type":"Point"},"id":"wikidata-Q6784277","properties":{"country":"US","id":"wikidata-Q6784277","inception":"2012-01-01","name":"Massachusetts Green High Performance Computing Center","operators":null,"owners":null,"website":"http://www.mghpcc.org/","wikidata_id":"Q6784277","wikidata_url":"https://www.wikidata.org/wiki/Q6784277"},"type":"Feature"},
{"geometry":{"coordinates":[113.984467,22.599314],"type":"Point"},"id":"wikidata-Q6978767","properties":{"country":"CN","id":"wikidata-Q6978767","inception":null,"name":"National Supercomputing Center in Shenzhen","operators":null,"owners":null,"website":"http://nsccsz.cn/","wikidata_id":"Q6978767","wikidata_url":"https://www.wikidata.org/wiki/Q6978767"},"type":"Feature"},
{"geometry":{"coordinates":[117.720672,39.042342],"type":"Point"},"id":"wikidata-Q6978768","properties":{"country":"CN","id":"wikidata-Q6978768","inception":"1984-01-01","name":"National Supercomputing Center of Tianjin","operators":null,"owners":null,"website":"http://www.nscc-tj.gov.cn/en/index.asp","wikidata_id":"Q6978768","wikidata_url":"https://www.wikidata.org/wiki/Q6978768"},"type":"Feature"},
{"geometry":{"coordinates":[-79.949326,40.445566],"type":"Point"},"id":"wikidata-Q7199401","properties":{"country":"US","id":"wikidata-Q7199401","inception":"1986-01-01","name":"Pittsburgh Supercomputing Center","operators":null,"owners":null,"website":"http://www.psc.edu/","wikidata_id":"Q7199401","wikidata_url":"https://www.wikidata.org/wiki/Q7199401"},"type":"Feature"},
{"geometry":{"coordinates":[116.373955,39.906518],"type":"Point"},"id":"wikidata-Q10902368","properties":{"country":"CN","id":"wikidata-Q10902368","inception":null,"name":"Telegraph Building","operators":null,"owners":null,"website":null,"wikidata_id":"Q10902368","wikidata_url":"https://www.wikidata.org/wiki/Q10902368"},"type":"Feature"},
{"geometry":{"coordinates":[135.491381,34.695447],"type":"Point"},"id":"wikidata-Q11236058","properties":{"country":"JP","id":"wikidata-Q11236058","inception":null,"name":"NTT Telepark Dojima","operators":null,"owners":null,"website":null,"wikidata_id":"Q11236058","wikidata_url":"https://www.wikidata.org/wiki/Q11236058"},"type":"Feature"},
{"geometry":{"coordinates":[-111.933092,40.43153],"type":"Point"},"id":"wikidata-Q12857142","properties":{"country":"US","id":"wikidata-Q12857142","inception":null,"name":"Utah Data Center","operators":"National Security Agency","owners":null,"website":null,"wikidata_id":"Q12857142","wikidata_url":"https://www.wikidata.org/wiki/Q12857142"},"type":"Feature"},
{"geometry":{"coordinates":[113.388611,23.073056],"type":"Point"},"id":"wikidata-Q13518432","properties":{"country":"CN","id":"wikidata-Q13518432","inception":null,"name":"National Supercomputing Center in Guangzhou (NSCC-GZ)","operators":null,"owners":null,"website":"http://www.nscc-gz.cn/","wikidata_id":"Q13518432","wikidata_url":"https://www.wikidata.org/wiki/Q13518432"},"type":"Feature"},
{"geometry":{"coordinates":[-22.575443,63.976906],"type":"Point"},"id":"wikidata-Q16424746","properties":{"country":"IS","id":"wikidata-Q16424746","inception":null,"name":"Q16424746","operators":null,"owners":null,"website":null,"wikidata_id":"Q16424746","wikidata_url":"https://www.wikidata.org/wiki/Q16424746"},"type":"Feature"},
{"geometry":{"coordinates":[117.125847,36.673356],"type":"Point"},"id":"wikidata-Q17023538","properties":{"country":"CN","id":"wikidata-Q17023538","inception":null,"name":"National Supercomputing Center in Jinan","operators":null,"owners":null,"website":null,"wikidata_id":"Q17023538","wikidata_url":"https://www.wikidata.org/wiki/Q17023538"},"type":"Feature"},
{"geometry":{"coordinates":[112.938211,28.176403],"type":"Point"},"id":"wikidata-Q17023539","properties":{"country":"CN","id":"wikidata-Q17023539","inception":null,"name":"National Supercomputing Center in Changsha","operators":null,"owners":null,"website":"https://nscc.hnu.edu.cn","wikidata_id":"Q17023539","wikidata_url":"https://www.wikidata.org/wiki/Q17023539"},"type":"Feature"},
{"geometry":{"coordinates":[-6.239382,53.3426],"type":"Point"},"id":"wikidata-Q17088113","properties":{"country":"IE","id":"wikidata-Q17088113","inception":null,"name":"Irish Centre for High-End Computing","operators":null,"owners":null,"website":"http://www.ichec.ie/","wikidata_id":"Q17088113","wikidata_url":"https://www.wikidata.org/wiki/Q17088113"},"type":"Feature"},
{"geometry":{"coordinates":[9.5739,56.4834],"type":"Point"},"id":"wikidata-Q19721053","properties":{"country":"DK","id":"wikidata-Q19721053","inception":null,"name":"Foulum Data Center","operators":null,"owners":"APPLE ApS","website":null,"wikidata_id":"Q19721053","wikidata_url":"https://www.wikidata.org/wiki/Q19721053"},"type":"Feature"},
{"geometry":{"coordinates":[5.346583,43.338556],"type":"Point"},"id":"wikidata-Q23787696","properties":{"country":"FR","id":"wikidata-Q23787696","inception":null,"name":"ex U-Boot-Bunker Martha","operators":null,"owners":null,"website":null,"wikidata_id":"Q23787696","wikidata_url":"https://www.wikidata.org/wiki/Q23787696"},"type":"Feature"},
{"geometry":{"coordinates":[-104.8974,41.1289],"type":"Point"},"id":"wikidata-Q24259253","properties":{"country":"US","id":"wikidata-Q24259253","inception":"2003-01-01","name":"NCAR-Wyoming Supercomputing Center","operators":null,"owners":null,"website":null,"wikidata_id":"Q24259253","wikidata_url":"https://www.wikidata.org/wiki/Q24259253"},"type":"Feature"},
{"geometry":{"coordinates":[141.3,43.177778],"type":"Point"},"id":"wikidata-Q24863647","properties":{"country":"JP","id":"wikidata-Q24863647","inception":null,"name":"Q24863647","operators":null,"owners":"Sakura Internet","website":null,"wikidata_id":"Q24863647","wikidata_url":"https://www.wikidata.org/wiki/Q24863647"},"type":"Feature"},
{"geometry":{"coordinates":[-2.6383,53.3446],"type":"Point"},"id":"wikidata-Q24993366","properties":{"country":"GB","id":"wikidata-Q24993366","inception":null,"name":"Hartree Centre","operators":null,"owners":null,"website":"https://www.hartree.stfc.ac.uk/","wikidata_id":"Q24993366","wikidata_url":"https://www.wikidata.org/wiki/Q24993366"},"type":"Feature"},
{"geometry":{"coordinates":[-0.005614,51.511128],"type":"Point"},"id":"wikidata-Q26263559","properties":{"country":"GB","id":"wikidata-Q26263559","inception":null,"name":"Global Switch London North","operators":"Global Switch","owners":null,"website":null,"wikidata_id":"Q26263559","wikidata_url":"https://www.wikidata.org/wiki/Q26263559"},"type":"Feature"},
{"geometry":{"coordinates":[9.18772,47.68994],"type":"Point"},"id":"wikidata-Q37979269","properties":{"country":"DE","id":"wikidata-Q37979269","inception":"2014-01-01","name":"Communication, Information, Media Centre of the University of Konstanz","operators":null,"owners":null,"website":"https://www.kim.uni-konstanz.de/","wikidata_id":"Q37979269","wikidata_url":"https://www.wikidata.org/wiki/Q37979269"},"type":"Feature"},
{"geometry":{"coordinates":[8.790554,53.0939],"type":"Point"},"id":"wikidata-Q44521152","properties":{"country":"DE","id":"wikidata-Q44521152","inception":"2017-01-01","name":"Q44521152","operators":null,"owners":null,"website":null,"wikidata_id":"Q44521152","wikidata_url":"https://www.wikidata.org/wiki/Q44521152"},"type":"Feature"},
{"geometry":{"coordinates":[-156.440136,20.748753],"type":"Point"},"id":"wikidata-Q51078337","properties":{"country":"US","id":"wikidata-Q51078337","inception":null,"name":"Maui High Performance Computing Center","operators":"Air Force Maui Optical and Supercomputing observatory; University of Hawaiʻi System","owners":null,"website":"https://www.mhpcc.hpc.mil/","wikidata_id":"Q51078337","wikidata_url":"https://www.wikidata.org/wiki/Q51078337"},"type":"Feature"},
{"geometry":{"coordinates":[14.53026,50.060139],"type":"Point"},"id":"wikidata-Q52110660","properties":{"country":"CZ","id":"wikidata-Q52110660","inception":null,"name":"Q52110660","operators":"VSHosting","owners":"VSHosting","website":"http://www.serverpark.cz","wikidata_id":"Q52110660","wikidata_url":"https://www.wikidata.org/wiki/Q52110660"},"type":"Feature"},
{"geometry":{"coordinates":[-3.174,55.9217],"type":"Point"},"id":"wikidata-Q54869682","properties":{"country":"GB","id":"wikidata-Q54869682","inception":null,"name":"EPCC","operators":null,"owners":null,"website":"http://www.epcc.ed.ac.uk/","wikidata_id":"Q54869682","wikidata_url":"https://www.wikidata.org/wiki/Q54869682"},"type":"Feature"},
{"geometry":{"coordinates":[13.321567,52.511481],"type":"Point"},"id":"wikidata-Q58218722","properties":{"country":"DE","id":"wikidata-Q58218722","inception":"1960-01-01","name":"IBM-Haus","operators":"IBM","owners":null,"website":null,"wikidata_id":"Q58218722","wikidata_url":"https://www.wikidata.org/wiki/Q58218722"},"type":"Feature"},
{"geometry":{"coordinates":[3.907181,51.502164],"type":"Point"},"id":"wikidata-Q63127225","properties":{"country":null,"id":"wikidata-Q63127225","inception":"1950-01-01","name":"Bunker Kloetinge","operators":"CyberBunker","owners":null,"website":null,"wikidata_id":"Q63127225","wikidata_url":"https://www.wikidata.org/wiki/Q63127225"},"type":"Feature"},
{"geometry":{"coordinates":[-71.281103,46.781336],"type":"Point"},"id":"wikidata-Q65963874","properties":{"country":"CA","id":"wikidata-Q65963874","inception":"2019-01-01","name":"Data center of Université Laval","operators":null,"owners":"Laval University","website":null,"wikidata_id":"Q65963874","wikidata_url":"https://www.wikidata.org/wiki/Q65963874"},"type":"Feature"},
{"geometry":{"coordinates":[5.472417,52.505194],"type":"Point"},"id":"wikidata-Q97023425","properties":{"country":null,"id":"wikidata-Q97023425","inception":"1982-01-01","name":"Computer Uitwijk Centrum","operators":null,"owners":null,"website":null,"wikidata_id":"Q97023425","wikidata_url":"https://www.wikidata.org/wiki/Q97023425"},"type":"Feature"},
{"geometry":{"coordinates":[13.053455,52.395901],"type":"Point"},"id":"wikidata-Q104649226","properties":{"country":"DE","id":"wikidata-Q104649226","inception":null,"name":"Rechenzentrum Potsdam","operators":null,"owners":null,"website":null,"wikidata_id":"Q104649226","wikidata_url":"https://www.wikidata.org/wiki/Q104649226"},"type":"Feature"},
{"geometry":{"coordinates":[10.48479,55.36668],"type":"Point"},"id":"wikidata-Q106859609","properties":{"country":"DK","id":"wikidata-Q106859609","inception":null,"name":"Meta Odense Data Center","operators":null,"owners":"Cassin Networks ApS","website":null,"wikidata_id":"Q106859609","wikidata_url":"https://www.wikidata.org/wiki/Q106859609"},"type":"Feature"},
{"geometry":{"coordinates":[-96.798971,32.778128],"type":"Point"},"id":"wikidata-Q107322008","properties":{"country":"US","id":"wikidata-Q107322008","inception":"1921-01-01","name":"DataBank DFW1","operators":"DataBank","owners":"Federal Reserve Bank of Dallas; Digital Realty Trust","website":"https://www.databank.com/data-centers/dallas/400-south-akard/","wikidata_id":"Q107322008","wikidata_url":"https://www.wikidata.org/wiki/Q107322008"},"type":"Feature"},
{"geometry":{"coordinates":[2.41181,48.79476],"type":"Point"},"id":"wikidata-Q110910028","properties":{"country":"FR","id":"wikidata-Q110910028","inception":null,"name":"OPCORE DC2","operators":"Scaleway","owners":null,"website":null,"wikidata_id":"Q110910028","wikidata_url":"https://www.wikidata.org/wiki/Q110910028"},"type":"Feature"},
{"geometry":{"coordinates":[2.37929,48.77487],"type":"Point"},"id":"wikidata-Q110914855","properties":{"country":"FR","id":"wikidata-Q110914855","inception":null,"name":"OPCORE DC3","operators":"Scaleway","owners":null,"website":null,"wikidata_id":"Q110914855","wikidata_url":"https://www.wikidata.org/wiki/Q110914855"},"type":"Feature"},
{"geometry":{"coordinates":[2.29597,48.82949],"type":"Point"},"id":"wikidata-Q110914878","properties":{"country":"FR","id":"wikidata-Q110914878","inception":null,"name":"Scaleway DC4","operators":"Scaleway","owners":null,"website":null,"wikidata_id":"Q110914878","wikidata_url":"https://www.wikidata.org/wiki/Q110914878"},"type":"Feature"},
{"geometry":{"coordinates":[2.1379,49.05378],"type":"Point"},"id":"wikidata-Q110914894","properties":{"country":"FR","id":"wikidata-Q110914894","inception":null,"name":"OPCORE DC5","operators":"Scaleway","owners":null,"website":null,"wikidata_id":"Q110914894","wikidata_url":"https://www.wikidata.org/wiki/Q110914894"},"type":"Feature"},
{"geometry":{"coordinates":[174.7639,-36.85414],"type":"Point"},"id":"wikidata-Q111679093","properties":{"country":"NZ","id":"wikidata-Q111679093","inception":"1967-01-01","name":"Mayoral Drive Exchange","operators":null,"owners":null,"website":null,"wikidata_id":"Q111679093","wikidata_url":"https://www.wikidata.org/wiki/Q111679093"},"type":"Feature"},
{"geometry":{"coordinates":[-94.581047,39.100808],"type":"Point"},"id":"wikidata-Q113134265","properties":{"country":"US","id":"wikidata-Q113134265","inception":"1930-01-01","name":"Bryant Building","operators":null,"owners":null,"website":null,"wikidata_id":"Q113134265","wikidata_url":"https://www.wikidata.org/wiki/Q113134265"},"type":"Feature"},
{"geometry":{"coordinates":[-3.994579,56.357843],"type":"Point"},"id":"wikidata-Q113557752","properties":{"country":"GB","id":"wikidata-Q113557752","inception":"1990-01-01","name":"Cultybraggan nuclear bunker","operators":null,"owners":null,"website":null,"wikidata_id":"Q113557752","wikidata_url":"https://www.wikidata.org/wiki/Q113557752"},"type":"Feature"},
{"geometry":{"coordinates":[116.385246,40.004644],"type":"Point"},"id":"wikidata-Q113648846","properties":{"country":"CN","id":"wikidata-Q113648846","inception":null,"name":"National Astronomical Data Center","operators":null,"owners":null,"website":"https://nadc.china-vo.org/","wikidata_id":"Q113648846","wikidata_url":"https://www.wikidata.org/wiki/Q113648846"},"type":"Feature"},
{"geometry":{"coordinates":[9.6536,55.5579],"type":"Point"},"id":"wikidata-Q115674884","properties":{"country":"DK","id":"wikidata-Q115674884","inception":"2020-01-01","name":"Google Data Center Fredericia","operators":null,"owners":"Google","website":"https://www.google.com/about/datacenters/locations/fredericia/","wikidata_id":"Q115674884","wikidata_url":"https://www.wikidata.org/wiki/Q115674884"},"type":"Feature"},
{"geometry":{"coordinates":[11.35995,44.520469],"type":"Point"},"id":"wikidata-Q115707655","properties":{"country":"IT","id":"wikidata-Q115707655","inception":null,"name":"Bologna Technopole","operators":null,"owners":"Emilia-Romagna","website":"https://www.tecnopolomanifattura.it","wikidata_id":"Q115707655","wikidata_url":"https://www.wikidata.org/wiki/Q115707655"},"type":"Feature"},
{"geometry":{"coordinates":[-0.0034,51.5071],"type":"Point"},"id":"wikidata-Q119855829","properties":{"country":"GB","id":"wikidata-Q119855829","inception":null,"name":"Telehouse South","operators":"Telehouse Europe","owners":null,"website":"https://www.telehouse.net/data-centre-services/uk/london/telehouse-south/","wikidata_id":"Q119855829","wikidata_url":"https://www.wikidata.org/wiki/Q119855829"},"type":"Feature"},
{"geometry":{"coordinates":[13.72213,51.02478],"type":"Point"},"id":"wikidata-Q123495573","properties":{"country":"DE","id":"wikidata-Q123495573","inception":null,"name":"Lehmann Center Data Center","operators":null,"owners":null,"website":null,"wikidata_id":"Q123495573","wikidata_url":"https://www.wikidata.org/wiki/Q123495573"},"type":"Feature"},
{"geometry":{"coordinates":[-76.115887,43.012101],"type":"Point"},"id":"wikidata-Q125698075","properties":{"country":"US","id":"wikidata-Q125698075","inception":"2009-01-01","name":"Syracuse University Green Data Center","operators":null,"owners":"Syracuse University","website":null,"wikidata_id":"Q125698075","wikidata_url":"https://www.wikidata.org/wiki/Q125698075"},"type":"Feature"},
{"geometry":{"coordinates":[13.744565,51.04603],"type":"Point"},"id":"wikidata-Q126617156","properties":{"country":"DE","id":"wikidata-Q126617156","inception":null,"name":"Q126617156","operators":null,"owners":null,"website":null,"wikidata_id":"Q126617156","wikidata_url":"https://www.wikidata.org/wiki/Q126617156"},"type":"Feature"},
{"geometry":{"coordinates":[-55.27225,5.749278],"type":"Point"},"id":"wikidata-Q127164861","properties":{"country":"SR","id":"wikidata-Q127164861","inception":null,"name":"Datasur","operators":null,"owners":null,"website":null,"wikidata_id":"Q127164861","wikidata_url":"https://www.wikidata.org/wiki/Q127164861"},"type":"Feature"},
{"geometry":{"coordinates":[11.5665,48.1381],"type":"Point"},"id":"wikidata-Q134103589","properties":{"country":"DE","id":"wikidata-Q134103589","inception":null,"name":"Zentrales EDV-Gebäude","operators":null,"owners":null,"website":null,"wikidata_id":"Q134103589","wikidata_url":"https://www.wikidata.org/wiki/Q134103589"},"type":"Feature"},
{"geometry":{"coordinates":[101.51973,3.222618],"type":"Point"},"id":"wikidata-Q136745002","properties":{"country":"MY","id":"wikidata-Q136745002","inception":null,"name":"Google Data Center, Elmina Business Park","operators":null,"owners":null,"website":null,"wikidata_id":"Q136745002","wikidata_url":"https://www.wikidata.org/wiki/Q136745002"},"type":"Feature"},
{"geometry":{"coordinates":[13.96534,51.84783],"type":"Point"},"id":"wikidata-Q136814847","properties":{"country":"DE","id":"wikidata-Q136814847","inception":null,"name":"datacenter Lübbenau","operators":"Schwarz Digits","owners":null,"website":null,"wikidata_id":"Q136814847","wikidata_url":"https://www.wikidata.org/wiki/Q136814847"},"type":"Feature"},
{"geometry":{"coordinates":[9.778503,52.258242],"type":"Point"},"id":"wikidata-Q137900358","properties":{"country":"DE","id":"wikidata-Q137900358","inception":null,"name":"Q137900358","operators":"Finanz Informatik","owners":null,"website":null,"wikidata_id":"Q137900358","wikidata_url":"https://www.wikidata.org/wiki/Q137900358"},"type":"Feature"},
{"geometry":{"coordinates":[-91.632333,32.477149],"type":"Point"},"id":"wikidata-Q138001063","properties":{"country":"US","id":"wikidata-Q138001063","inception":null,"name":"Hyperion","operators":"Meta Platforms","owners":null,"website":"https://www.richlandparishdatacenter.com/","wikidata_id":"Q138001063","wikidata_url":"https://www.wikidata.org/wiki/Q138001063"},"type":"Feature"},
{"geometry":{"coordinates":[-0.00198,51.51206],"type":"Point"},"id":"wikidata-Q138426651","properties":{"country":"GB","id":"wikidata-Q138426651","inception":null,"name":"Telehouse North","operators":"Telehouse Europe","owners":null,"website":"https://www.telehouse.net/data-centre-services/uk/london/telehouse-north/","wikidata_id":"Q138426651","wikidata_url":"https://www.wikidata.org/wiki/Q138426651"},"type":"Feature"},
{"geometry":{"coordinates":[-0.00053,51.51211],"type":"Point"},"id":"wikidata-Q138426653","properties":{"country":"GB","id":"wikidata-Q138426653","inception":null,"name":"Telehouse North Two","operators":"Telehouse Europe","owners":null,"website":"https://www.telehouse.net/data-centre-services/uk/london/telehouse-north-two/","wikidata_id":"Q138426653","wikidata_url":"https://www.wikidata.org/wiki/Q138426653"},"type":"Feature"},
{"geometry":{"coordinates":[-0.00126,51.51152],"type":"Point"},"id":"wikidata-Q138426664","properties":{"country":"GB","id":"wikidata-Q138426664","inception":null,"name":"Telehouse East","operators":"Telehouse Europe","owners":null,"website":"https://www.telehouse.net/data-centre-services/uk/london/telehouse-east/","wikidata_id":"Q138426664","wikidata_url":"https://www.wikidata.org/wiki/Q138426664"},"type":"Feature"},
{"geometry":{"coordinates":[-0.0023,51.51129],"type":"Point"},"id":"wikidata-Q138426670","properties":{"country":"GB","id":"wikidata-Q138426670","inception":null,"name":"Telehouse West","operators":"Telehouse Europe","owners":null,"website":"https://www.telehouse.net/data-centre-services/uk/london/telehouse-west/","wikidata_id":"Q138426670","wikidata_url":"https://www.wikidata.org/wiki/Q138426670"},"type":"Feature"},
{"geometry":{"coordinates":[-0.00348,51.51096],"type":"Point"},"id":"wikidata-Q138426707","properties":{"country":"GB","id":"wikidata-Q138426707","inception":null,"name":"Global Switch London East","operators":"Global Switch","owners":null,"website":null,"wikidata_id":"Q138426707","wikidata_url":"https://www.wikidata.org/wiki/Q138426707"},"type":"Feature"},
{"geometry":{"coordinates":[-0.00547,51.51071],"type":"Point"},"id":"wikidata-Q138426766","properties":{"country":"GB","id":"wikidata-Q138426766","inception":null,"name":"Global Switch London South","operators":"Global Switch","owners":null,"website":null,"wikidata_id":"Q138426766","wikidata_url":"https://www.wikidata.org/wiki/Q138426766"},"type":"Feature"},
{"geometry":{"coordinates":[-0.01108,51.49984],"type":"Point"},"id":"wikidata-Q138426781","properties":{"country":"GB","id":"wikidata-Q138426781","inception":null,"name":"Digital Realty LHR20","operators":"Digital Realty Trust","owners":null,"website":"https://www.digitalrealty.com/data-centers/emea/london/lhr20","wikidata_id":"Q138426781","wikidata_url":"https://www.wikidata.org/wiki/Q138426781"},"type":"Feature"},
{"geometry":{"coordinates":[-0.58835,51.32389],"type":"Point"},"id":"wikidata-Q138426793","properties":{"country":"GB","id":"wikidata-Q138426793","inception":null,"name":"Digital Realty LGW14","operators":"Digital Realty Trust","owners":null,"website":"https://www.digitalrealty.com/data-centers/emea/london/lgw14","wikidata_id":"Q138426793","wikidata_url":"https://www.wikidata.org/wiki/Q138426793"},"type":"Feature"},
{"geometry":{"coordinates":[-77.237311,37.483928],"type":"Point"},"id":"wikidata-Q139609394","properties":{"country":"US","id":"wikidata-Q139609394","inception":"2017-01-01","name":"Meta Henrico Data Center","operators":null,"owners":"Meta Platforms","website":null,"wikidata_id":"Q139609394","wikidata_url":"https://www.wikidata.org/wiki/Q139609394"},"type":"Feature"},
{"geometry":{"coordinates":[11.167978,10.270055],"type":"Point"},"id":"wikidata-Q139700465","properties":{"country":"NG","id":"wikidata-Q139700465","inception":null,"name":"PANTAMI CBT CENTRE","operators":null,"owners":null,"website":null,"wikidata_id":"Q139700465","wikidata_url":"https://www.wikidata.org/wiki/Q139700465"},"type":"Feature"},
{"geometry":{"coordinates":[5.268341,52.36449],"type":"Point"},"id":"wikidata-Q139731413","properties":{"country":null,"id":"wikidata-Q139731413","inception":null,"name":"Almere Data Center","operators":null,"owners":null,"website":"https://www.northcdatacenters.com/en/northc-datacenters/almere/","wikidata_id":"Q139731413","wikidata_url":"https://www.wikidata.org/wiki/Q139731413"},"type":"Feature"},
{"geometry":{"coordinates":[55.175053,24.985275],"type":"Point"},"id":"wikidata-Q139741696","properties":{"country":"AE","id":"wikidata-Q139741696","inception":"2016-01-01","name":"MinersHub","operators":null,"owners":null,"website":"https://minershub.ae/","wikidata_id":"Q139741696","wikidata_url":"https://www.wikidata.org/wiki/Q139741696"},"type":"Feature"},
{"geometry":{"coordinates":[4.83429,52.394772],"type":"Point"},"id":"wikidata-Q139760640","properties":{"country":null,"id":"wikidata-Q139760640","inception":"2026-01-01","name":"Data center Westpoort","operators":null,"owners":null,"website":null,"wikidata_id":"Q139760640","wikidata_url":"https://www.wikidata.org/wiki/Q139760640"},"type":"Feature"},
{"geometry":{"coordinates":[5.037557,52.761418],"type":"Point"},"id":"wikidata-Q140089116","properties":{"country":null,"id":"wikidata-Q140089116","inception":null,"name":"Microsoft Data Center Campus Middenmeer","operators":null,"owners":"Microsoft","website":null,"wikidata_id":"Q140089116","wikidata_url":"https://www.wikidata.org/wiki/Q140089116"},"type":"Feature"},
{"geometry":{"coordinates":[-118.257409,34.047464],"type":"Point"},"id":"wikidata-Q140451650","properties":{"country":"US","id":"wikidata-Q140451650","inception":"1915-01-01","name":"600 West 7th Street","operators":"Digital Realty Trust","owners":null,"website":"https://www.digitalrealty.com/data-centers/americas/los-angeles/lax10","wikidata_id":"Q140451650","wikidata_url":"https://www.wikidata.org/wiki/Q140451650"},"type":"Feature"},
{"geometry":{"coordinates":[27.1859,38.421333],"type":"Point"},"id":"wikidata-Q141237030","properties":{"country":"TR","id":"wikidata-Q141237030","inception":"2018-01-01","name":"Alastyr Datacenter","operators":"Alastyr","owners":null,"website":"https://www.alastyr.com/datacenter","wikidata_id":"Q141237030","wikidata_url":"https://www.wikidata.org/wiki/Q141237030"},"type":"Feature"},
{"geometry":{"coordinates":[-96.794172,32.787307],"type":"Point"},"id":"wikidata-Q141502440","properties":{"country":"US","id":"wikidata-Q141502440","inception":"1983-01-01","name":"Univision Tower","operators":null,"owners":null,"website":null,"wikidata_id":"Q141502440","wikidata_url":"https://www.wikidata.org/wiki/Q141502440"},"type":"Feature"},
{"geometry":{"coordinates":[-106.656389,31.813056],"type":"Point"},"id":"wikidata-Q141545657","properties":{"country":"US","id":"wikidata-Q141545657","inception":"2020-01-01","name":"Project Jupiter","operators":null,"owners":null,"website":"https://projectjupitertogether.com","wikidata_id":"Q141545657","wikidata_url":"https://www.wikidata.org/wiki/Q141545657"},"type":"Feature"},
{"geometry":{"coordinates":[54.447841,24.148261],"type":"Point"},"id":"wikidata-Q141658651","properties":{"country":"AE","id":"wikidata-Q141658651","inception":null,"name":"Stargate UAE Abu Dhabi","operators":null,"owners":null,"website":null,"wikidata_id":"Q141658651","wikidata_url":"https://www.wikidata.org/wiki/Q141658651"},"type":"Feature"}
]}
